GLOBALSTAR M045         
1 25676U 99019A   25019.28908247 -.00000119  00000+0 -22267-3 0  9995
2 25676  51.9995   9.6592 0000245 318.2616 146.0182 12.27055097175110
GLOBALSTAR M019         
1 25677U 99019B   25019.56781271 -.00000142  00000+0 -54704-3 0  9990
2 25677  51.9868 128.7710 0001238  68.0819  50.3207 12.13868599167090
GLOBALSTAR M044         
1 25678U 99019C   25019.47503434 -.00000074  00000+0  13719-3 0  9998
2 25678  51.9978  61.7861 0006889 116.7316  29.2768 11.90248637153615
GLOBALSTAR M042         
1 25679U 99019D   25019.54860387 -.00000062  00000+0  28019-3 0  9996
2 25679  52.0012 110.5627 0002349   6.7248 121.6888 12.22076853167080
GLOBALSTAR M025         
1 25770U 99031A   25019.51583538 -.00000054  00000+0  41837-3 0  9993
2 25770  51.9802 143.6781 0000976 207.4343 233.0641 11.22558683465019
GLOBALSTAR M049         
1 25771U 99031B   25019.59448714 -.00000028  00000+0  12992-2 0  9998
2 25771  51.9842 170.7912 0004594 118.1062 242.0199 11.12111094100897
GLOBALSTAR M047         
1 25772U 99031C   25019.61578942 -.00000057  00000+0  34150-3 0  9992
2 25772  51.9799 181.9081 0016321  12.4237 347.6969 11.31926155454286
GLOBALSTAR M052         
1 25773U 99031D   25019.17276073 -.00000056  00000+0  31422-3 0  9992
2 25773  51.9870 282.5237 0001940 306.1362 209.5947 11.15057197461880
